{"type": "FeatureCollection", "features": [ {"type": "Feature", "properties": {"norad_id": 66664, "name": "SOYUZ-MS 28", "group": "last-30-days", "lat": 50.745594637448924, "lon": -104.3757102305627, "alt_km": 413.0703727328864, "timestamp": "2025-12-05T04:52:14.143580+00:00", "meta": {"OBJECT_NAME": "SOYUZ-MS 28", "OBJECT_ID": "2025-275A", "EPOCH": "2025-12-04T13:02:29.700384", "MEAN_MOTION": 15.49306035, "ECCENTRICITY": 0.0003596, "INCLINATION": 51.6299, "RA_OF_ASC_NODE": 183.0583, "ARG_OF_PERICENTER": 202.7086, "MEAN_ANOMALY": 157.3744, "EPHEMERIS_TYPE": 0, "CLASSIFICATION_TYPE": "U", "NORAD_CAT_ID": 66664, "ELEMENT_SET_NO": 999, "REV_AT_EPOCH": 117, "BSTAR": 0.00029318, "MEAN_MOTION_DOT": 0.0001591, "MEAN_MOTION_DDOT": 0}, "tle": {"line1": "1 66664U 25275A   25338.54339931  .00015910  00000+0  29318-3 0  9998", "line2": "2 66664  51.6299 183.0583 0003596 202.7086 157.3744 15.49306035  1174"}}, "geometry": {"type": "Point", "coordinates": [-104.3757102305627, 50.745594637448924]}}, {"type": "Feature", "properties": {"norad_id": 66820, "name": "KOMPSAT-7", "group": "last-30-days", "lat": 31.73962616448816, "lon": -79.52878552226167, "alt_km": 576.0845638900719, "timestamp": "2025-12-05T04:52:14.143591+00:00", "meta": {"OBJECT_NAME": "KOMPSAT-7", "OBJECT_ID": "2025-279A", "EPOCH": "2025-12-01T20:35:16.060992", "MEAN_MOTION": 14.98310631, "ECCENTRICITY": 0.00097501, "INCLINATION": 97.6394, "RA_OF_ASC_NODE": 281.9587, "ARG_OF_PERICENTER": 255.3935, "MEAN_ANOMALY": 104.6207, "EPHEMERIS_TYPE": 0, "CLASSIFICATION_TYPE": "U", "NORAD_CAT_ID": 66820, "ELEMENT_SET_NO": 999, "REV_AT_EPOCH": 2, "BSTAR": 8.4407298e-05, "MEAN_MOTION_DOT": 9.47e-06, "MEAN_MOTION_DDOT": 0}, "tle": {"line1": "1 66820U 25279A   25335.85782478  .00000947  00000+0  84407-4 0  9990", "line2": "2 66820  97.6394 281.9587 0009750 255.3935 104.6207 14.98310631    23"}}, "geometry": {"type": "Point", "coordinates": [-79.52878552226167, 31.73962616448816]}}, {"type": "Feature", "properties": {"norad_id": 66877, "name": "DUMMY PAYLOAD", "group": "last-30-days", "lat": -30.641122740823192, "lon": -71.1956992509909, "alt_km": 156.99372906046665, "timestamp": "2025-12-05T04:52:14.143602+00:00", "meta": {"OBJECT_NAME": "DUMMY PAYLOAD", "OBJECT_ID": "2025-282A", "EPOCH": "2025-12-04T16:11:05.422848", "MEAN_MOTION": 14.3900918, "ECCENTRICITY": 0.0864537, "INCLINATION": 56.9559, "RA_OF_ASC_NODE": 88.0896, "ARG_OF_PERICENTER": 206.2177, "MEAN_ANOMALY": 149.2529, "EPHEMERIS_TYPE": 0, "CLASSIFICATION_TYPE": "U", "NORAD_CAT_ID": 66877, "ELEMENT_SET_NO": 999, "REV_AT_EPOCH": 22, "BSTAR": 0.00025162, "MEAN_MOTION_DOT": 0.01123671, "MEAN_MOTION_DDOT": 7.168e-06}, "tle": {"line1": "1 66877U 25282A   25338.67436832  .01123671  71680-5  25162-3 0  9990", "line2": "2 66877  56.9559  88.0896 0864537 206.2177 149.2529 14.39009180   223"}}, "geometry": {"type": "Point", "coordinates": [-71.1956992509909, -30.641122740823192]}}]}